KUIPER-00104            
1 65142U 25171L   25286.88851925  .00056437  00000+0  15142-2 0  9992
2 65142  51.8754  98.8995 0004056 352.6606   7.4321 15.37405492 10986
KUIPER-00105            
1 65143U 25171M   25286.91668981 -.00520912  00000+0 -26109-1 0  9995
2 65143  51.8834  99.7419 0008698 338.8575  10.9105 15.19265857  4233
KUIPER-00106            
1 65144U 25171N   25286.91668981 -.00865588  00000+0 -61467-1 0  9993
2 65144  51.9039 101.7795 0008153 331.1112  64.3502 15.06970591  5398
KUIPER-00107            
1 65145U 25171P   25286.88401515  .00030334  00000+0  82142-3 0  9994
2 65145  51.8747  98.8688 0004496 359.2493   0.8486 15.37406911 10992
KUIPER-00108            
1 65146U 25171Q   25286.91668981 -.00464752  00000+0 -15028-1 0  9995
2 65146  51.8766  98.9503 0005421   9.1883  56.6967 15.33458003  5749
KUIPER-00109            
1 65147U 25171R   25286.87501872  .00041678  00000+0  11087-2 0  9994
2 65147  51.8758  98.8031 0005933 339.8988  20.1765 15.37796428 10987
KUIPER-00110            
1 65148U 25171S   25286.91668981  .00052133  00000+0  28618-2 0  9991
2 65148  51.8826 100.6760 0009565 339.1109 262.6019 15.13595359  5464
KUIPER-00111            
1 65149U 25171T   25286.91668981 -.00873918  00000+0 -76186-1 0  9998
2 65149  51.8916 103.0845 0007275 353.3780 208.4127 14.99339249  4515
